<?xml version='1.0' encoding='utf-8'?>
<osm generator="OSM Conflator 1.4.1" version="0.6"><changeset><tag k="source" v="mipweb.cm-porto.pt" /><tag k="created_by" v="OSM Conflator 1.4.1" /><tag k="type" v="import" /></changeset><node action="modify" id="6647823940" lat="41.1432924" lon="-8.6104297" version="1"><tag k="camera:mount" v="pole" /><tag k="camera:type" v="dome" /><tag k="man_made" v="surveillance" /><tag k="surveillance" v="public" /><tag k="surveillance:type" v="camera" /><tag k="surveillance:zone" v="traffic" /><tag k="operator" v="Câmara Municipal do Porto" /></node><node action="modify" id="6647824154" lat="41.1482838" lon="-8.60639" version="1"><tag k="camera:mount" v="pole" /><tag k="camera:type" v="dome" /><tag k="man_made" v="surveillance" /><tag k="surveillance" v="public" /><tag k="surveillance:type" v="camera" /><tag k="surveillance:zone" v="traffic" /><tag k="operator" v="Câmara Municipal do Porto" /></node><node action="modify" id="7274146099" lat="41.1527618" lon="-8.6326306" version="1"><tag k="camera:mount" v="pople" /><tag k="man_made" v="surveillance" /><tag k="surveillance" v="outdoor" /><tag k="surveillance:type" v="camera" /><tag k="operator" v="Câmara Municipal do Porto" /></node><node action="modify" id="7274125895" lat="41.1598928" lon="-8.6247317" version="1"><tag k="man_made" v="surveillance" /><tag k="surveillance" v="public" /><tag k="surveillance:type" v="camera" /><tag k="operator" v="Câmara Municipal do Porto" /></node><node action="modify" id="7274146100" lat="41.1523922" lon="-8.6259935" version="1"><tag k="camera:mount" v="pole" /><tag k="man_made" v="surveillance" /><tag k="surveillance" v="outdoor" /><tag k="surveillance:type" v="camera" /><tag k="operator" v="Câmara Municipal do Porto" /></node><node action="modify" id="4297946789" lat="41.174601" lon="-8.6135143" version="1"><tag k="camera:mount" v="pole" /><tag k="camera:type" v="dome" /><tag k="man_made" v="surveillance" /><tag k="surveillance:type" v="camera" /><tag k="surveillance" v="public" /><tag k="operator" v="Câmara Municipal do Porto" /></node><node action="modify" id="7274125894" lat="41.1565105" lon="-8.6208317" version="1"><tag k="man_made" v="surveillance" /><tag k="surveillance" v="public" /><tag k="surveillance:type" v="camera" /><tag k="operator" v="Câmara Municipal do Porto" /></node><node action="modify" id="3891282379" lat="41.1497352" lon="-8.6057358" version="1"><tag k="camera:mount" v="pole" /><tag k="camera:type" v="dome" /><tag k="man_made" v="surveillance" /><tag k="surveillance" v="public" /><tag k="surveillance:type" v="camera" /><tag k="operator" v="Câmara Municipal do Porto" /></node><node action="modify" id="6647824423" lat="41.146949" lon="-8.6067699" version="1"><tag k="camera:mount" v="pole" /><tag k="camera:type" v="dome" /><tag k="man_made" v="surveillance" /><tag k="surveillance" v="public" /><tag k="surveillance:type" v="camera" /><tag k="surveillance:zone" v="traffic" /><tag k="operator" v="Câmara Municipal do Porto" /></node><node action="modify" id="7274125897" lat="41.1568514" lon="-8.6293461" version="1"><tag k="man_made" v="surveillance" /><tag k="surveillance" v="public" /><tag k="surveillance:type" v="camera" /><tag k="operator" v="Câmara Municipal do Porto" /></node><node action="modify" id="7274125896" lat="41.1590059" lon="-8.6289913" version="1"><tag k="man_made" v="surveillance" /><tag k="surveillance" v="public" /><tag k="surveillance:type" v="camera" /><tag k="operator" v="Câmara Municipal do Porto" /></node><node action="modify" id="7274146101" lat="41.1469194" lon="-8.6329377" version="1"><tag k="camera:mount" v="pole" /><tag k="man_made" v="surveillance" /><tag k="surveillance" v="outdoor" /><tag k="surveillance:type" v="camera" /><tag k="operator" v="Câmara Municipal do Porto" /></node><node id="-1" lat="41.16304306730047" lon="-8.58097263168521" version="1"><tag k="man_made" v="surveillance" /><tag k="surveillance" v="public" /><tag k="surveillance:type" v="camera" /><tag k="operator" v="Câmara Municipal do Porto" /></node><node id="-2" lat="41.14648723026661" lon="-8.581158927026589" version="1"><tag k="man_made" v="surveillance" /><tag k="surveillance" v="public" /><tag k="surveillance:type" v="camera" /><tag k="operator" v="Câmara Municipal do Porto" /></node><node id="-3" lat="41.154763383046735" lon="-8.583042901378436" version="1"><tag k="man_made" v="surveillance" /><tag k="surveillance" v="public" /><tag k="surveillance:type" v="camera" /><tag k="operator" v="Câmara Municipal do Porto" /></node><node id="-4" lat="41.16329813136262" lon="-8.583466851420745" version="1"><tag k="man_made" v="surveillance" /><tag k="surveillance" v="public" /><tag k="surveillance:type" v="camera" /><tag k="operator" v="Câmara Municipal do Porto" /></node><node id="-5" lat="41.16306495086547" lon="-8.583696165610524" version="1"><tag k="man_made" v="surveillance" /><tag k="surveillance" v="public" /><tag k="surveillance:type" v="camera" /><tag k="operator" v="Câmara Municipal do Porto" /></node><node id="-6" lat="41.1628212491339" lon="-8.584784446458029" version="1"><tag k="man_made" v="surveillance" /><tag k="surveillance" v="public" /><tag k="surveillance:type" v="camera" /><tag k="operator" v="Câmara Municipal do Porto" /></node><node id="-7" lat="41.16260656662993" lon="-8.585155741880136" version="1"><tag k="man_made" v="surveillance" /><tag k="surveillance" v="public" /><tag k="surveillance:type" v="camera" /><tag k="operator" v="Câmara Municipal do Porto" /></node><node id="-8" lat="41.162701328272234" lon="-8.58525087212728" version="1"><tag k="man_made" v="surveillance" /><tag k="surveillance" v="public" /><tag k="surveillance:type" v="camera" /><tag k="operator" v="Câmara Municipal do Porto" /></node><node id="-9" lat="41.16177269424425" lon="-8.58546916966351" version="1"><tag k="man_made" v="surveillance" /><tag k="surveillance" v="public" /><tag k="surveillance:type" v="camera" /><tag k="operator" v="Câmara Municipal do Porto" /></node><node id="-10" lat="41.16295857039292" lon="-8.586513722147794" version="1"><tag k="man_made" v="surveillance" /><tag k="surveillance" v="public" /><tag k="surveillance:type" v="camera" /><tag k="operator" v="Câmara Municipal do Porto" /></node><node id="-11" lat="41.163421047966295" lon="-8.587944991346152" version="1"><tag k="man_made" v="surveillance" /><tag k="surveillance" v="public" /><tag k="surveillance:type" v="camera" /><tag k="operator" v="Câmara Municipal do Porto" /></node><node id="-12" lat="41.16746257205678" lon="-8.588193249430333" version="1"><tag k="man_made" v="surveillance" /><tag k="surveillance" v="public" /><tag k="surveillance:type" v="camera" /><tag k="operator" v="Câmara Municipal do Porto" /></node><node id="-13" lat="41.16389163135207" lon="-8.589130441497257" version="1"><tag k="man_made" v="surveillance" /><tag k="surveillance" v="public" /><tag k="surveillance:type" v="camera" /><tag k="operator" v="Câmara Municipal do Porto" /></node><node id="-14" lat="41.16418135442977" lon="-8.589234262863481" version="1"><tag k="man_made" v="surveillance" /><tag k="surveillance" v="public" /><tag k="surveillance:type" v="camera" /><tag k="operator" v="Câmara Municipal do Porto" /></node><node id="-15" lat="41.16420889937276" lon="-8.589326528847312" version="1"><tag k="man_made" v="surveillance" /><tag k="surveillance" v="public" /><tag k="surveillance:type" v="camera" /><tag k="operator" v="Câmara Municipal do Porto" /></node><node id="-16" lat="41.16390748780344" lon="-8.589337040007399" version="1"><tag k="man_made" v="surveillance" /><tag k="surveillance" v="public" /><tag k="surveillance:type" v="camera" /><tag k="operator" v="Câmara Municipal do Porto" /></node><node id="-17" lat="41.1638812340087" lon="-8.589648954463199" version="1"><tag k="man_made" v="surveillance" /><tag k="surveillance" v="public" /><tag k="surveillance:type" v="camera" /><tag k="operator" v="Câmara Municipal do Porto" /></node><node id="-18" lat="41.1628243502994" lon="-8.590582494424805" version="1"><tag k="man_made" v="surveillance" /><tag k="surveillance" v="public" /><tag k="surveillance:type" v="camera" /><tag k="operator" v="Câmara Municipal do Porto" /></node><node id="-19" lat="41.15549192337096" lon="-8.591051411953726" version="1"><tag k="man_made" v="surveillance" /><tag k="surveillance" v="public" /><tag k="surveillance:type" v="camera" /><tag k="operator" v="Câmara Municipal do Porto" /></node><node id="-20" lat="41.160972918577066" lon="-8.59185887759334" version="1"><tag k="man_made" v="surveillance" /><tag k="surveillance" v="public" /><tag k="surveillance:type" v="camera" /><tag k="operator" v="Câmara Municipal do Porto" /></node><node id="-21" lat="41.155415807443184" lon="-8.592511866552222" version="1"><tag k="man_made" v="surveillance" /><tag k="surveillance" v="public" /><tag k="surveillance:type" v="camera" /><tag k="operator" v="Câmara Municipal do Porto" /></node><node id="-22" lat="41.155225962040724" lon="-8.593218173852149" version="1"><tag k="man_made" v="surveillance" /><tag k="surveillance" v="public" /><tag k="surveillance:type" v="camera" /><tag k="operator" v="Câmara Municipal do Porto" /></node><node id="-23" lat="41.15528453030035" lon="-8.59376231739137" version="1"><tag k="man_made" v="surveillance" /><tag k="surveillance" v="public" /><tag k="surveillance:type" v="camera" /><tag k="operator" v="Câmara Municipal do Porto" /></node><node id="-24" lat="41.16700042679859" lon="-8.5941060627219" version="1"><tag k="man_made" v="surveillance" /><tag k="surveillance" v="public" /><tag k="surveillance:type" v="camera" /><tag k="operator" v="Câmara Municipal do Porto" /></node><node id="-25" lat="41.15091126886201" lon="-8.594151752201427" version="1"><tag k="man_made" v="surveillance" /><tag k="surveillance" v="public" /><tag k="surveillance:type" v="camera" /><tag k="operator" v="Câmara Municipal do Porto" /></node><node id="-26" lat="41.15579278048782" lon="-8.595044061425204" version="1"><tag k="man_made" v="surveillance" /><tag k="surveillance" v="public" /><tag k="surveillance:type" v="camera" /><tag k="operator" v="Câmara Municipal do Porto" /></node><node id="-27" lat="41.17198608689175" lon="-8.595201137364691" version="1"><tag k="man_made" v="surveillance" /><tag k="surveillance" v="public" /><tag k="surveillance:type" v="camera" /><tag k="operator" v="Câmara Municipal do Porto" /></node><node id="-28" lat="41.146080930358075" lon="-8.595364868876285" version="1"><tag k="man_made" v="surveillance" /><tag k="surveillance" v="public" /><tag k="surveillance:type" v="camera" /><tag k="operator" v="Câmara Municipal do Porto" /></node><node id="-29" lat="41.15238669695129" lon="-8.596947190258682" version="1"><tag k="man_made" v="surveillance" /><tag k="surveillance" v="public" /><tag k="surveillance:type" v="camera" /><tag k="operator" v="Câmara Municipal do Porto" /></node><node id="-30" lat="41.18238091930057" lon="-8.597099753166976" version="1"><tag k="man_made" v="surveillance" /><tag k="surveillance" v="public" /><tag k="surveillance:type" v="camera" /><tag k="operator" v="Câmara Municipal do Porto" /></node><node id="-31" lat="41.14830504055724" lon="-8.5983276838398" version="1"><tag k="man_made" v="surveillance" /><tag k="surveillance" v="public" /><tag k="surveillance:type" v="camera" /><tag k="operator" v="Câmara Municipal do Porto" /></node><node id="-32" lat="41.16556782567136" lon="-8.598689323045887" version="1"><tag k="man_made" v="surveillance" /><tag k="surveillance" v="public" /><tag k="surveillance:type" v="camera" /><tag k="operator" v="Câmara Municipal do Porto" /></node><node id="-33" lat="41.151075248152246" lon="-8.600070252218044" version="1"><tag k="man_made" v="surveillance" /><tag k="surveillance" v="public" /><tag k="surveillance:type" v="camera" /><tag k="operator" v="Câmara Municipal do Porto" /></node><node id="-34" lat="41.14566449445471" lon="-8.60182272724752" version="1"><tag k="man_made" v="surveillance" /><tag k="surveillance" v="public" /><tag k="surveillance:type" v="camera" /><tag k="operator" v="Câmara Municipal do Porto" /></node><node id="-35" lat="41.143144654866106" lon="-8.602118280356684" version="1"><tag k="man_made" v="surveillance" /><tag k="surveillance" v="public" /><tag k="surveillance:type" v="camera" /><tag k="operator" v="Câmara Municipal do Porto" /></node><node id="-36" lat="41.154522084466734" lon="-8.603135518689403" version="1"><tag k="man_made" v="surveillance" /><tag k="surveillance" v="public" /><tag k="surveillance:type" v="camera" /><tag k="operator" v="Câmara Municipal do Porto" /></node><node id="-37" lat="41.14637910372202" lon="-8.60377397522719" version="1"><tag k="man_made" v="surveillance" /><tag k="surveillance" v="public" /><tag k="surveillance:type" v="camera" /><tag k="operator" v="Câmara Municipal do Porto" /></node><node id="-38" lat="41.161901758346175" lon="-8.604220441076679" version="1"><tag k="man_made" v="surveillance" /><tag k="surveillance" v="public" /><tag k="surveillance:type" v="camera" /><tag k="operator" v="Câmara Municipal do Porto" /></node><node id="-39" lat="41.17127032967376" lon="-8.604828793333743" version="1"><tag k="man_made" v="surveillance" /><tag k="surveillance" v="public" /><tag k="surveillance:type" v="camera" /><tag k="operator" v="Câmara Municipal do Porto" /></node><node id="-40" lat="41.143937052246244" lon="-8.604899991200124" version="1"><tag k="man_made" v="surveillance" /><tag k="surveillance" v="public" /><tag k="surveillance:type" v="camera" /><tag k="operator" v="Câmara Municipal do Porto" /></node><node id="-41" lat="41.18022278397849" lon="-8.60520887836386" version="1"><tag k="man_made" v="surveillance" /><tag k="surveillance" v="public" /><tag k="surveillance:type" v="camera" /><tag k="operator" v="Câmara Municipal do Porto" /></node><node id="-42" lat="41.17367399968158" lon="-8.605712939037295" version="1"><tag k="man_made" v="surveillance" /><tag k="surveillance" v="public" /><tag k="surveillance:type" v="camera" /><tag k="operator" v="Câmara Municipal do Porto" /></node><node id="-43" lat="41.15348636334386" lon="-8.606226798030072" version="1"><tag k="man_made" v="surveillance" /><tag k="surveillance" v="public" /><tag k="surveillance:type" v="camera" /><tag k="operator" v="Câmara Municipal do Porto" /></node><node id="-44" lat="41.166454488309654" lon="-8.606514283059754" version="1"><tag k="man_made" v="surveillance" /><tag k="surveillance" v="public" /><tag k="surveillance:type" v="camera" /><tag k="operator" v="Câmara Municipal do Porto" /></node><node id="-45" lat="41.15098076805281" lon="-8.607360383535067" version="1"><tag k="man_made" v="surveillance" /><tag k="surveillance" v="public" /><tag k="surveillance:type" v="camera" /><tag k="operator" v="Câmara Municipal do Porto" /></node><node id="-46" lat="41.15740159021099" lon="-8.609216728079767" version="1"><tag k="man_made" v="surveillance" /><tag k="surveillance" v="public" /><tag k="surveillance:type" v="camera" /><tag k="operator" v="Câmara Municipal do Porto" /></node><node id="-47" lat="41.16152970417035" lon="-8.60953558464349" version="1"><tag k="man_made" v="surveillance" /><tag k="surveillance" v="public" /><tag k="surveillance:type" v="camera" /><tag k="operator" v="Câmara Municipal do Porto" /></node><node id="-48" lat="41.14079057448253" lon="-8.609708852862815" version="1"><tag k="man_made" v="surveillance" /><tag k="surveillance" v="public" /><tag k="surveillance:type" v="camera" /><tag k="operator" v="Câmara Municipal do Porto" /></node><node id="-49" lat="41.151895399764456" lon="-8.610038328121737" version="1"><tag k="man_made" v="surveillance" /><tag k="surveillance" v="public" /><tag k="surveillance:type" v="camera" /><tag k="operator" v="Câmara Municipal do Porto" /></node><node id="-50" lat="41.14077967914265" lon="-8.610238373321785" version="1"><tag k="man_made" v="surveillance" /><tag k="surveillance" v="public" /><tag k="surveillance:type" v="camera" /><tag k="operator" v="Câmara Municipal do Porto" /></node><node id="-51" lat="41.15067687795267" lon="-8.610261656011806" version="1"><tag k="man_made" v="surveillance" /><tag k="surveillance" v="public" /><tag k="surveillance:type" v="camera" /><tag k="operator" v="Câmara Municipal do Porto" /></node><node id="-52" lat="41.14984963066531" lon="-8.61087636540065" version="1"><tag k="man_made" v="surveillance" /><tag k="surveillance" v="public" /><tag k="surveillance:type" v="camera" /><tag k="operator" v="Câmara Municipal do Porto" /></node><node id="-53" lat="41.1451674687134" lon="-8.611013586561077" version="1"><tag k="man_made" v="surveillance" /><tag k="surveillance" v="public" /><tag k="surveillance:type" v="camera" /><tag k="operator" v="Câmara Municipal do Porto" /></node><node id="-54" lat="41.143411412545106" lon="-8.61101374296475" version="1"><tag k="man_made" v="surveillance" /><tag k="surveillance" v="public" /><tag k="surveillance:type" v="camera" /><tag k="operator" v="Câmara Municipal do Porto" /></node><node id="-55" lat="41.16275295772122" lon="-8.611064180496658" version="1"><tag k="man_made" v="surveillance" /><tag k="surveillance" v="public" /><tag k="surveillance:type" v="camera" /><tag k="operator" v="Câmara Municipal do Porto" /></node><node id="-56" lat="41.1460069637429" lon="-8.611229172503549" version="1"><tag k="man_made" v="surveillance" /><tag k="surveillance" v="public" /><tag k="surveillance:type" v="camera" /><tag k="operator" v="Câmara Municipal do Porto" /></node><node id="-57" lat="41.14488683080956" lon="-8.611839972887621" version="1"><tag k="man_made" v="surveillance" /><tag k="surveillance" v="public" /><tag k="surveillance:type" v="camera" /><tag k="operator" v="Câmara Municipal do Porto" /></node><node id="-58" lat="41.148006071487515" lon="-8.612120417360817" version="1"><tag k="man_made" v="surveillance" /><tag k="surveillance" v="public" /><tag k="surveillance:type" v="camera" /><tag k="operator" v="Câmara Municipal do Porto" /></node><node id="-59" lat="41.14539834375198" lon="-8.612158208715924" version="1"><tag k="man_made" v="surveillance" /><tag k="surveillance" v="public" /><tag k="surveillance:type" v="camera" /><tag k="operator" v="Câmara Municipal do Porto" /></node><node id="-60" lat="41.14532235227915" lon="-8.612233950905084" version="1"><tag k="man_made" v="surveillance" /><tag k="surveillance" v="public" /><tag k="surveillance:type" v="camera" /><tag k="operator" v="Câmara Municipal do Porto" /></node><node id="-61" lat="41.171845973988624" lon="-8.612629834229168" version="1"><tag k="man_made" v="surveillance" /><tag k="surveillance" v="public" /><tag k="surveillance:type" v="camera" /><tag k="operator" v="Câmara Municipal do Porto" /></node><node id="-62" lat="41.141546009946396" lon="-8.612943207687383" version="1"><tag k="man_made" v="surveillance" /><tag k="surveillance" v="public" /><tag k="surveillance:type" v="camera" /><tag k="operator" v="Câmara Municipal do Porto" /></node><node id="-63" lat="41.14534049272346" lon="-8.6133087798502" version="1"><tag k="man_made" v="surveillance" /><tag k="surveillance" v="public" /><tag k="surveillance:type" v="camera" /><tag k="operator" v="Câmara Municipal do Porto" /></node><node id="-64" lat="41.14130996632016" lon="-8.613330616502857" version="1"><tag k="man_made" v="surveillance" /><tag k="surveillance" v="public" /><tag k="surveillance:type" v="camera" /><tag k="operator" v="Câmara Municipal do Porto" /></node><node id="-65" lat="41.15422832655342" lon="-8.61338595345443" version="1"><tag k="man_made" v="surveillance" /><tag k="surveillance" v="public" /><tag k="surveillance:type" v="camera" /><tag k="operator" v="Câmara Municipal do Porto" /></node><node id="-66" lat="41.14567092721258" lon="-8.61347981032792" version="1"><tag k="man_made" v="surveillance" /><tag k="surveillance" v="public" /><tag k="surveillance:type" v="camera" /><tag k="operator" v="Câmara Municipal do Porto" /></node><node id="-67" lat="41.14619465274958" lon="-8.614001303056899" version="1"><tag k="man_made" v="surveillance" /><tag k="surveillance" v="public" /><tag k="surveillance:type" v="camera" /><tag k="operator" v="Câmara Municipal do Porto" /></node><node id="-68" lat="41.14284788872793" lon="-8.614172148623185" version="1"><tag k="man_made" v="surveillance" /><tag k="surveillance" v="public" /><tag k="surveillance:type" v="camera" /><tag k="operator" v="Câmara Municipal do Porto" /></node><node id="-69" lat="41.14442190102105" lon="-8.614206550620759" version="1"><tag k="man_made" v="surveillance" /><tag k="surveillance" v="public" /><tag k="surveillance:type" v="camera" /><tag k="operator" v="Câmara Municipal do Porto" /></node><node id="-70" lat="41.148408880342416" lon="-8.614319469978359" version="1"><tag k="man_made" v="surveillance" /><tag k="surveillance" v="public" /><tag k="surveillance:type" v="camera" /><tag k="operator" v="Câmara Municipal do Porto" /></node><node id="-71" lat="41.14834853960151" lon="-8.61450576870565" version="1"><tag k="man_made" v="surveillance" /><tag k="surveillance" v="public" /><tag k="surveillance:type" v="camera" /><tag k="operator" v="Câmara Municipal do Porto" /></node><node id="-72" lat="41.14183181551436" lon="-8.614595650194884" version="1"><tag k="man_made" v="surveillance" /><tag k="surveillance" v="public" /><tag k="surveillance:type" v="camera" /><tag k="operator" v="Câmara Municipal do Porto" /></node><node id="-73" lat="41.14270352797685" lon="-8.614652477189553" version="1"><tag k="man_made" v="surveillance" /><tag k="surveillance" v="public" /><tag k="surveillance:type" v="camera" /><tag k="operator" v="Câmara Municipal do Porto" /></node><node id="-74" lat="41.14090030380128" lon="-8.614726833068236" version="1"><tag k="man_made" v="surveillance" /><tag k="surveillance" v="public" /><tag k="surveillance:type" v="camera" /><tag k="operator" v="Câmara Municipal do Porto" /></node><node id="-75" lat="41.14291780668657" lon="-8.614826595031985" version="1"><tag k="man_made" v="surveillance" /><tag k="surveillance" v="public" /><tag k="surveillance:type" v="camera" /><tag k="operator" v="Câmara Municipal do Porto" /></node><node id="-76" lat="41.145424902514485" lon="-8.615552541085334" version="1"><tag k="man_made" v="surveillance" /><tag k="surveillance" v="public" /><tag k="surveillance:type" v="camera" /><tag k="operator" v="Câmara Municipal do Porto" /></node><node id="-77" lat="41.14732620440207" lon="-8.615878094458044" version="1"><tag k="man_made" v="surveillance" /><tag k="surveillance" v="public" /><tag k="surveillance:type" v="camera" /><tag k="operator" v="Câmara Municipal do Porto" /></node><node id="-78" lat="41.14044344780297" lon="-8.61601081108992" version="1"><tag k="man_made" v="surveillance" /><tag k="surveillance" v="public" /><tag k="surveillance:type" v="camera" /><tag k="operator" v="Câmara Municipal do Porto" /></node><node id="-79" lat="41.147096721061246" lon="-8.616211357014198" version="1"><tag k="man_made" v="surveillance" /><tag k="surveillance" v="public" /><tag k="surveillance:type" v="camera" /><tag k="operator" v="Câmara Municipal do Porto" /></node><node id="-80" lat="41.148806047128296" lon="-8.616267507096007" version="1"><tag k="man_made" v="surveillance" /><tag k="surveillance" v="public" /><tag k="surveillance:type" v="camera" /><tag k="operator" v="Câmara Municipal do Porto" /></node><node id="-81" lat="41.14829373540727" lon="-8.616774621972723" version="1"><tag k="man_made" v="surveillance" /><tag k="surveillance" v="public" /><tag k="surveillance:type" v="camera" /><tag k="operator" v="Câmara Municipal do Porto" /></node><node id="-82" lat="41.151608710201764" lon="-8.617684802030025" version="1"><tag k="man_made" v="surveillance" /><tag k="surveillance" v="public" /><tag k="surveillance:type" v="camera" /><tag k="operator" v="Câmara Municipal do Porto" /></node><node id="-83" lat="41.14810424000024" lon="-8.61820883969469" version="1"><tag k="man_made" v="surveillance" /><tag k="surveillance" v="public" /><tag k="surveillance:type" v="camera" /><tag k="operator" v="Câmara Municipal do Porto" /></node><node id="-84" lat="41.14766876713541" lon="-8.620059615467971" version="1"><tag k="man_made" v="surveillance" /><tag k="surveillance" v="public" /><tag k="surveillance:type" v="camera" /><tag k="operator" v="Câmara Municipal do Porto" /></node><node id="-85" lat="41.147309388371156" lon="-8.620339645063925" version="1"><tag k="man_made" v="surveillance" /><tag k="surveillance" v="public" /><tag k="surveillance:type" v="camera" /><tag k="operator" v="Câmara Municipal do Porto" /></node><node id="-86" lat="41.14741829866157" lon="-8.620415474219449" version="1"><tag k="man_made" v="surveillance" /><tag k="surveillance" v="public" /><tag k="surveillance:type" v="camera" /><tag k="operator" v="Câmara Municipal do Porto" /></node><node id="-87" lat="41.16383963148487" lon="-8.620594056018684" version="1"><tag k="man_made" v="surveillance" /><tag k="surveillance" v="public" /><tag k="surveillance:type" v="camera" /><tag k="operator" v="Câmara Municipal do Porto" /></node><node id="-88" lat="41.17322773385153" lon="-8.622669565439137" version="1"><tag k="man_made" v="surveillance" /><tag k="surveillance" v="public" /><tag k="surveillance:type" v="camera" /><tag k="operator" v="Câmara Municipal do Porto" /></node><node id="-89" lat="41.167013515506525" lon="-8.625112566403326" version="1"><tag k="man_made" v="surveillance" /><tag k="surveillance" v="public" /><tag k="surveillance:type" v="camera" /><tag k="operator" v="Câmara Municipal do Porto" /></node><node id="-90" lat="41.178030631904505" lon="-8.62903304782684" version="1"><tag k="man_made" v="surveillance" /><tag k="surveillance" v="public" /><tag k="surveillance:type" v="camera" /><tag k="operator" v="Câmara Municipal do Porto" /></node><node id="-91" lat="41.169432698373576" lon="-8.632018849728995" version="1"><tag k="man_made" v="surveillance" /><tag k="surveillance" v="public" /><tag k="surveillance:type" v="camera" /><tag k="operator" v="Câmara Municipal do Porto" /></node><node id="-92" lat="41.17200766880779" lon="-8.632681101958132" version="1"><tag k="man_made" v="surveillance" /><tag k="surveillance" v="public" /><tag k="surveillance:type" v="camera" /><tag k="operator" v="Câmara Municipal do Porto" /></node><node id="-93" lat="41.1634979874284" lon="-8.63373866015207" version="1"><tag k="man_made" v="surveillance" /><tag k="surveillance" v="public" /><tag k="surveillance:type" v="camera" /><tag k="operator" v="Câmara Municipal do Porto" /></node><node id="-94" lat="41.1590038766785" lon="-8.635655079624597" version="1"><tag k="man_made" v="surveillance" /><tag k="surveillance" v="public" /><tag k="surveillance:type" v="camera" /><tag k="operator" v="Câmara Municipal do Porto" /></node><node id="-95" lat="41.16490255687097" lon="-8.639554287809716" version="1"><tag k="man_made" v="surveillance" /><tag k="surveillance" v="public" /><tag k="surveillance:type" v="camera" /><tag k="operator" v="Câmara Municipal do Porto" /></node><node id="-96" lat="41.151017607953186" lon="-8.641416627361243" version="1"><tag k="man_made" v="surveillance" /><tag k="surveillance" v="public" /><tag k="surveillance:type" v="camera" /><tag k="operator" v="Câmara Municipal do Porto" /></node><node id="-97" lat="41.167152468030366" lon="-8.642146997627098" version="1"><tag k="man_made" v="surveillance" /><tag k="surveillance" v="public" /><tag k="surveillance:type" v="camera" /><tag k="operator" v="Câmara Municipal do Porto" /></node><node id="-98" lat="41.16525222031423" lon="-8.642676383906096" version="1"><tag k="man_made" v="surveillance" /><tag k="surveillance" v="public" /><tag k="surveillance:type" v="camera" /><tag k="operator" v="Câmara Municipal do Porto" /></node><node id="-99" lat="41.15607479350844" lon="-8.645559086169971" version="1"><tag k="man_made" v="surveillance" /><tag k="surveillance" v="public" /><tag k="surveillance:type" v="camera" /><tag k="operator" v="Câmara Municipal do Porto" /></node><node id="-100" lat="41.166437237861786" lon="-8.649952573943796" version="1"><tag k="man_made" v="surveillance" /><tag k="surveillance" v="public" /><tag k="surveillance:type" v="camera" /><tag k="operator" v="Câmara Municipal do Porto" /></node><node id="-101" lat="41.161398517176515" lon="-8.649993513643105" version="1"><tag k="man_made" v="surveillance" /><tag k="surveillance" v="public" /><tag k="surveillance:type" v="camera" /><tag k="operator" v="Câmara Municipal do Porto" /></node><node id="-102" lat="41.14845904886235" lon="-8.65392341600251" version="1"><tag k="man_made" v="surveillance" /><tag k="surveillance" v="public" /><tag k="surveillance:type" v="camera" /><tag k="operator" v="Câmara Municipal do Porto" /></node><node id="-103" lat="41.16725259846336" lon="-8.655077330666883" version="1"><tag k="man_made" v="surveillance" /><tag k="surveillance" v="public" /><tag k="surveillance:type" v="camera" /><tag k="operator" v="Câmara Municipal do Porto" /></node><node id="-104" lat="41.16229883087304" lon="-8.65514602244268" version="1"><tag k="man_made" v="surveillance" /><tag k="surveillance" v="public" /><tag k="surveillance:type" v="camera" /><tag k="operator" v="Câmara Municipal do Porto" /></node><node id="-105" lat="41.15035896971819" lon="-8.662368650741696" version="1"><tag k="man_made" v="surveillance" /><tag k="surveillance" v="public" /><tag k="surveillance:type" v="camera" /><tag k="operator" v="Câmara Municipal do Porto" /></node><node id="-106" lat="41.16367569031704" lon="-8.66285703465658" version="1"><tag k="man_made" v="surveillance" /><tag k="surveillance" v="public" /><tag k="surveillance:type" v="camera" /><tag k="operator" v="Câmara Municipal do Porto" /></node><node id="-107" lat="41.15828498727415" lon="-8.66515718219433" version="1"><tag k="man_made" v="surveillance" /><tag k="surveillance" v="public" /><tag k="surveillance:type" v="camera" /><tag k="operator" v="Câmara Municipal do Porto" /></node><node id="-108" lat="41.16822149166584" lon="-8.6708318311061" version="1"><tag k="man_made" v="surveillance" /><tag k="surveillance" v="public" /><tag k="surveillance:type" v="camera" /><tag k="operator" v="Câmara Municipal do Porto" /></node><node id="-109" lat="41.17060081572162" lon="-8.67096800289819" version="1"><tag k="man_made" v="surveillance" /><tag k="surveillance" v="public" /><tag k="surveillance:type" v="camera" /><tag k="operator" v="Câmara Municipal do Porto" /></node><node id="-110" lat="41.17384379471405" lon="-8.671427562317279" version="1"><tag k="man_made" v="surveillance" /><tag k="surveillance" v="public" /><tag k="surveillance:type" v="camera" /><tag k="operator" v="Câmara Municipal do Porto" /></node><node id="-111" lat="41.16495067119026" lon="-8.671867746224553" version="1"><tag k="man_made" v="surveillance" /><tag k="surveillance" v="public" /><tag k="surveillance:type" v="camera" /><tag k="operator" v="Câmara Municipal do Porto" /></node><node id="-112" lat="41.15480528598066" lon="-8.673180291133907" version="1"><tag k="man_made" v="surveillance" /><tag k="surveillance" v="public" /><tag k="surveillance:type" v="camera" /><tag k="operator" v="Câmara Municipal do Porto" /></node><node id="-113" lat="41.1728195518947" lon="-8.674103127477418" version="1"><tag k="man_made" v="surveillance" /><tag k="surveillance" v="public" /><tag k="surveillance:type" v="camera" /><tag k="operator" v="Câmara Municipal do Porto" /></node><node id="-114" lat="41.1480112687521" lon="-8.674751042644157" version="1"><tag k="man_made" v="surveillance" /><tag k="surveillance" v="public" /><tag k="surveillance:type" v="camera" /><tag k="operator" v="Câmara Municipal do Porto" /></node><node id="-115" lat="41.16621076924203" lon="-8.677854738820052" version="1"><tag k="man_made" v="surveillance" /><tag k="surveillance" v="public" /><tag k="surveillance:type" v="camera" /><tag k="operator" v="Câmara Municipal do Porto" /></node><node id="-116" lat="41.1719926790957" lon="-8.68077687211233" version="1"><tag k="man_made" v="surveillance" /><tag k="surveillance" v="public" /><tag k="surveillance:type" v="camera" /><tag k="operator" v="Câmara Municipal do Porto" /></node><node id="-117" lat="41.15930750796747" lon="-8.683883994652605" version="1"><tag k="man_made" v="surveillance" /><tag k="surveillance" v="public" /><tag k="surveillance:type" v="camera" /><tag k="operator" v="Câmara Municipal do Porto" /></node><node id="-118" lat="41.173553441444106" lon="-8.683941289592779" version="1"><tag k="man_made" v="surveillance" /><tag k="surveillance" v="public" /><tag k="surveillance:type" v="camera" /><tag k="operator" v="Câmara Municipal do Porto" /></node><node id="-119" lat="41.16737079084307" lon="-8.6848131048859" version="1"><tag k="man_made" v="surveillance" /><tag k="surveillance" v="public" /><tag k="surveillance:type" v="camera" /><tag k="operator" v="Câmara Municipal do Porto" /></node><node id="-120" lat="41.167856072143415" lon="-8.68703989143092" version="1"><tag k="man_made" v="surveillance" /><tag k="surveillance" v="public" /><tag k="surveillance:type" v="camera" /><tag k="operator" v="Câmara Municipal do Porto" /></node><node id="-121" lat="41.17333604281209" lon="-8.68814292261883" version="1"><tag k="man_made" v="surveillance" /><tag k="surveillance" v="public" /><tag k="surveillance:type" v="camera" /><tag k="operator" v="Câmara Municipal do Porto" /></node><node id="-122" lat="41.16708411242516" lon="-8.688228992114263" version="1"><tag k="man_made" v="surveillance" /><tag k="surveillance" v="public" /><tag k="surveillance:type" v="camera" /><tag k="operator" v="Câmara Municipal do Porto" /></node></osm>